{
    "links": {
        "self": "http://www.neowsapp.com/rest/v1/neo/54065911?api_key=iIulBulltgU6a56xZRHN4H3l9WmuAYTsLGpBGhQ2"
    },
    "id": "54065911",
    "neo_reference_id": "54065911",
    "name": "(2020 TC6)",
    "designation": "2020 TC6",
    "nasa_jpl_url": "http://ssd.jpl.nasa.gov/sbdb.cgi?sstr=54065911",
    "absolute_magnitude_h": 27.577,
    "estimated_diameter": {
        "kilometers": {
            "estimated_diameter_min": 0.008112505,
            "estimated_diameter_max": 0.0181401126
        },
        "meters": {
            "estimated_diameter_min": 8.1125049837,
            "estimated_diameter_max": 18.1401126114
        },
        "miles": {
            "estimated_diameter_min": 0.0050408753,
            "estimated_diameter_max": 0.0112717399
        },
        "feet": {
            "estimated_diameter_min": 26.6158308508,
            "estimated_diameter_max": 59.51480706
        }
    },
    "is_potentially_hazardous_asteroid": false,
    "close_approach_data": [
        {
            "close_approach_date": "2020-10-15",
            "close_approach_date_full": "2020-Oct-15 15:49",
            "epoch_date_close_approach": 1602776940000,
            "relative_velocity": {
                "kilometers_per_second": "8.373997472",
                "kilometers_per_hour": "30146.3908991464",
                "miles_per_hour": "18731.7949450835"
            },
            "miss_distance": {
                "astronomical": "0.0093587221",
                "lunar": "3.6405428969",
                "kilometers": "1400044.892081927",
                "miles": "869947.5559355126"
            },
            "orbiting_body": "Earth"
        }
    ],
    "orbital_data": {
        "orbit_id": "5",
        "orbit_determination_date": "2020-10-19 08:22:15",
        "first_observation_date": "2020-10-15",
        "last_observation_date": "2020-10-19",
        "data_arc_in_days": 4,
        "observations_used": 57,
        "orbit_uncertainty": "7",
        "minimum_orbit_intersection": ".00619888",
        "jupiter_tisserand_invariant": "3.282",
        "epoch_osculation": "2459000.5",
        "eccentricity": ".5830480595087322",
        "semi_major_axis": "2.383556796961121",
        "inclination": "1.606944146603331",
        "ascending_node_longitude": "210.4909206766174",
        "orbital_period": "1344.115794439007",
        "perihelion_distance": ".9938286317640901",
        "perihelion_argument": "157.8825860002105",
        "aphelion_distance": "3.773284962158151",
        "perihelion_time": "2459126.987726583550",
        "mean_anomaly": "326.1222777394091",
        "mean_motion": ".2678340671908055",
        "equinox": "J2000",
        "orbit_class": {
            "orbit_class_type": "APO",
            "orbit_class_description": "Near-Earth asteroid orbits which cross the Earth’s orbit similar to that of 1862 Apollo",
            "orbit_class_range": "a (semi-major axis) > 1.0 AU; q (perihelion) < 1.017 AU"
        }
    },
    "is_sentry_object": false
}